CCSDS_OMM_VERS = 2.0
CREATION_DATE  = 
ORIGINATOR     = 

OBJECT_NAME    = KUIPER-00177
OBJECT_ID      = 2026-030C
CENTER_NAME    = EARTH
REF_FRAME      = TEME
TIME_SYSTEM    = UTC
MEAN_ELEMENT_THEORY = SGP/SGP4

EPOCH          = 2026-03-06T22:51:25.833312
MEAN_MOTION    = 15.36417577
ECCENTRICITY   = .0001273
INCLINATION    = 51.8826
RA_OF_ASC_NODE = 232.2305
ARG_OF_PERICENTER = 16.8903
MEAN_ANOMALY   = 343.2125

EPHEMERIS_TYPE = 0
CLASSIFICATION_TYPE = U
NORAD_CAT_ID   = 67766
ELEMENT_SET_NO = 999
REV_AT_EPOCH   = 467
BSTAR          = .98167E-3
MEAN_MOTION_DOT = .35192E-3
MEAN_MOTION_DDOT = 0

CCSDS_OMM_VERS = 2.0
CREATION_DATE  = 
ORIGINATOR     = 

OBJECT_NAME    = KUIPER-00178
OBJECT_ID      = 2026-030D
CENTER_NAME    = EARTH
REF_FRAME      = TEME
TIME_SYSTEM    = UTC
MEAN_ELEMENT_THEORY = SGP/SGP4

EPOCH          = 2026-03-06T23:12:54.943776
MEAN_MOTION    = 15.35423814
ECCENTRICITY   = .0006376
INCLINATION    = 51.8833
RA_OF_ASC_NODE = 232.3263
ARG_OF_PERICENTER = 38.9732
MEAN_ANOMALY   = 321.1712

EPHEMERIS_TYPE = 0
CLASSIFICATION_TYPE = U
NORAD_CAT_ID   = 67767
ELEMENT_SET_NO = 999
REV_AT_EPOCH   = 467
BSTAR          = .96974E-3
MEAN_MOTION_DOT = .3367E-3
MEAN_MOTION_DDOT = 0

CCSDS_OMM_VERS = 2.0
CREATION_DATE  = 
ORIGINATOR     = 

OBJECT_NAME    = KUIPER-00180
OBJECT_ID      = 2026-030E
CENTER_NAME    = EARTH
REF_FRAME      = TEME
TIME_SYSTEM    = UTC
MEAN_ELEMENT_THEORY = SGP/SGP4

EPOCH          = 2026-03-06T22:27:56.340000
MEAN_MOTION    = 15.31911700
ECCENTRICITY   = .0014276
INCLINATION    = 51.8812
RA_OF_ASC_NODE = 232.8497
ARG_OF_PERICENTER = 60.3029
MEAN_ANOMALY   = 299.9374

EPHEMERIS_TYPE = 0
CLASSIFICATION_TYPE = U
NORAD_CAT_ID   = 67768
ELEMENT_SET_NO = 999
REV_AT_EPOCH   = 466
BSTAR          = -.49174E-3
MEAN_MOTION_DOT = -.1577E-3
MEAN_MOTION_DDOT = 0

CCSDS_OMM_VERS = 2.0
CREATION_DATE  = 
ORIGINATOR     = 

OBJECT_NAME    = KUIPER-00197
OBJECT_ID      = 2026-030F
CENTER_NAME    = EARTH
REF_FRAME      = TEME
TIME_SYSTEM    = UTC
MEAN_ELEMENT_THEORY = SGP/SGP4

EPOCH          = 2026-03-06T22:54:42.185088
MEAN_MOTION    = 15.36290829
ECCENTRICITY   = .0001422
INCLINATION    = 51.8827
RA_OF_ASC_NODE = 232.2446
ARG_OF_PERICENTER = 53.9682
MEAN_ANOMALY   = 306.1436

EPHEMERIS_TYPE = 0
CLASSIFICATION_TYPE = U
NORAD_CAT_ID   = 67769
ELEMENT_SET_NO = 999
REV_AT_EPOCH   = 467
BSTAR          = .98983E-3
MEAN_MOTION_DOT = .35343E-3
MEAN_MOTION_DDOT = 0

CCSDS_OMM_VERS = 2.0
CREATION_DATE  = 
ORIGINATOR     = 

OBJECT_NAME    = KUIPER-00198
OBJECT_ID      = 2026-030G
CENTER_NAME    = EARTH
REF_FRAME      = TEME
TIME_SYSTEM    = UTC
MEAN_ELEMENT_THEORY = SGP/SGP4

EPOCH          = 2026-03-06T23:02:13.859232
MEAN_MOTION    = 15.35933818
ECCENTRICITY   = .0003393
INCLINATION    = 51.8807
RA_OF_ASC_NODE = 232.2734
ARG_OF_PERICENTER = 38.8506
MEAN_ANOMALY   = 321.2724

EPHEMERIS_TYPE = 0
CLASSIFICATION_TYPE = U
NORAD_CAT_ID   = 67770
ELEMENT_SET_NO = 999
REV_AT_EPOCH   = 467
BSTAR          = .10463E-2
MEAN_MOTION_DOT = .36965E-3
MEAN_MOTION_DDOT = 0

CCSDS_OMM_VERS = 2.0
CREATION_DATE  = 
ORIGINATOR     = 

OBJECT_NAME    = KUIPER-00199
OBJECT_ID      = 2026-030H
CENTER_NAME    = EARTH
REF_FRAME      = TEME
TIME_SYSTEM    = UTC
MEAN_ELEMENT_THEORY = SGP/SGP4

EPOCH          = 2026-03-07T04:17:25.880928
MEAN_MOTION    = 15.34264276
ECCENTRICITY   = .0010486
INCLINATION    = 51.8825
RA_OF_ASC_NODE = 231.4828
ARG_OF_PERICENTER = 53.1698
MEAN_ANOMALY   = 307.0248

EPHEMERIS_TYPE = 0
CLASSIFICATION_TYPE = U
NORAD_CAT_ID   = 67771
ELEMENT_SET_NO = 999
REV_AT_EPOCH   = 470
BSTAR          = .15229E-2
MEAN_MOTION_DOT = .51335E-3
MEAN_MOTION_DDOT = 0

CCSDS_OMM_VERS = 2.0
CREATION_DATE  = 
ORIGINATOR     = 

OBJECT_NAME    = KUIPER-00200
OBJECT_ID      = 2026-030J
CENTER_NAME    = EARTH
REF_FRAME      = TEME
TIME_SYSTEM    = UTC
MEAN_ELEMENT_THEORY = SGP/SGP4

EPOCH          = 2026-03-06T22:41:46.644000
MEAN_MOTION    = 15.36950991
ECCENTRICITY   = .0001199
INCLINATION    = 51.8805
RA_OF_ASC_NODE = 232.1832
ARG_OF_PERICENTER = 236.8219
MEAN_ANOMALY   = 123.2653

EPHEMERIS_TYPE = 0
CLASSIFICATION_TYPE = U
NORAD_CAT_ID   = 67772
ELEMENT_SET_NO = 999
REV_AT_EPOCH   = 467
BSTAR          = .11919E-2
MEAN_MOTION_DOT = .43608E-3
MEAN_MOTION_DDOT = 0

CCSDS_OMM_VERS = 2.0
CREATION_DATE  = 
ORIGINATOR     = 

OBJECT_NAME    = KUIPER-00203
OBJECT_ID      = 2026-030K
CENTER_NAME    = EARTH
REF_FRAME      = TEME
TIME_SYSTEM    = UTC
MEAN_ELEMENT_THEORY = SGP/SGP4

EPOCH          = 2026-03-07T04:00:03.000096
MEAN_MOTION    = 15.19362672
ECCENTRICITY   = .0011778
INCLINATION    = 51.8837
RA_OF_ASC_NODE = 231.9407
ARG_OF_PERICENTER = 50.6098
MEAN_ANOMALY   = 18.3301

EPHEMERIS_TYPE = 0
CLASSIFICATION_TYPE = U
NORAD_CAT_ID   = 67773
ELEMENT_SET_NO = 999
REV_AT_EPOCH   = 326
BSTAR          = -.859E-1
MEAN_MOTION_DOT = -.1669998E-1
MEAN_MOTION_DDOT = 0

CCSDS_OMM_VERS = 2.0
CREATION_DATE  = 
ORIGINATOR     = 

OBJECT_NAME    = KUIPER-00205
OBJECT_ID      = 2026-030L
CENTER_NAME    = EARTH
REF_FRAME      = TEME
TIME_SYSTEM    = UTC
MEAN_ELEMENT_THEORY = SGP/SGP4

EPOCH          = 2026-03-06T22:55:47.902656
MEAN_MOTION    = 15.36280709
ECCENTRICITY   = .0003132
INCLINATION    = 51.8807
RA_OF_ASC_NODE = 232.2450
ARG_OF_PERICENTER = 13.0131
MEAN_ANOMALY   = 347.0936

EPHEMERIS_TYPE = 0
CLASSIFICATION_TYPE = U
NORAD_CAT_ID   = 67774
ELEMENT_SET_NO = 999
REV_AT_EPOCH   = 467
BSTAR          = .10613E-2
MEAN_MOTION_DOT = .37927E-3
MEAN_MOTION_DDOT = 0

CCSDS_OMM_VERS = 2.0
CREATION_DATE  = 
ORIGINATOR     = 

OBJECT_NAME    = KUIPER-00208
OBJECT_ID      = 2026-030M
CENTER_NAME    = EARTH
REF_FRAME      = TEME
TIME_SYSTEM    = UTC
MEAN_ELEMENT_THEORY = SGP/SGP4

EPOCH          = 2026-03-06T22:23:31.674336
MEAN_MOTION    = 15.32339655
ECCENTRICITY   = .0014815
INCLINATION    = 51.8835
RA_OF_ASC_NODE = 232.8389
ARG_OF_PERICENTER = 52.8930
MEAN_ANOMALY   = 307.3407

EPHEMERIS_TYPE = 0
CLASSIFICATION_TYPE = U
NORAD_CAT_ID   = 67775
ELEMENT_SET_NO = 999
REV_AT_EPOCH   = 466
BSTAR          = .95301E-3
MEAN_MOTION_DOT = .30045E-3
MEAN_MOTION_DDOT = 0

CCSDS_OMM_VERS = 2.0
CREATION_DATE  = 
ORIGINATOR     = 

OBJECT_NAME    = KUIPER-00209
OBJECT_ID      = 2026-030N
CENTER_NAME    = EARTH
REF_FRAME      = TEME
TIME_SYSTEM    = UTC
MEAN_ELEMENT_THEORY = SGP/SGP4

EPOCH          = 2026-03-07T04:00:03.000096
MEAN_MOTION    = 15.30239133
ECCENTRICITY   = .001293
INCLINATION    = 51.8828
RA_OF_ASC_NODE = 231.7998
ARG_OF_PERICENTER = 60.5032
MEAN_ANOMALY   = 108.1048

EPHEMERIS_TYPE = 0
CLASSIFICATION_TYPE = U
NORAD_CAT_ID   = 67776
ELEMENT_SET_NO = 999
REV_AT_EPOCH   = 409
BSTAR          = -.52334E-4
MEAN_MOTION_DOT = -.1926E-4
MEAN_MOTION_DDOT = 0

CCSDS_OMM_VERS = 2.0
CREATION_DATE  = 
ORIGINATOR     = 

OBJECT_NAME    = KUIPER-00213
OBJECT_ID      = 2026-030P
CENTER_NAME    = EARTH
REF_FRAME      = TEME
TIME_SYSTEM    = UTC
MEAN_ELEMENT_THEORY = SGP/SGP4

EPOCH          = 2026-03-06T22:24:07.266816
MEAN_MOTION    = 15.32638790
ECCENTRICITY   = .0015013
INCLINATION    = 51.8810
RA_OF_ASC_NODE = 232.8321
ARG_OF_PERICENTER = 56.9214
MEAN_ANOMALY   = 303.3210

EPHEMERIS_TYPE = 0
CLASSIFICATION_TYPE = U
NORAD_CAT_ID   = 67777
ELEMENT_SET_NO = 999
REV_AT_EPOCH   = 466
BSTAR          = .96939E-3
MEAN_MOTION_DOT = .30865E-3
MEAN_MOTION_DDOT = 0

