KUIPER-00177            
1 67766U 26030C   26065.95238233  .00035192  00000+0  98167-3 0  9990
2 67766  51.8826 232.2305 0001273  16.8903 343.2125 15.36417577  4674
KUIPER-00178            
1 67767U 26030D   26065.96730259  .00033670  00000+0  96974-3 0  9990
2 67767  51.8833 232.3263 0006376  38.9732 321.1712 15.35423814  4678
KUIPER-00180            
1 67768U 26030E   26065.93606875 -.00015770  00000+0 -49174-3 0  9997
2 67768  51.8812 232.8497 0014276  60.3029 299.9374 15.31911700  4663
KUIPER-00197            
1 67769U 26030F   26065.95465492  .00035343  00000+0  98983-3 0  9996
2 67769  51.8827 232.2446 0001422  53.9682 306.1436 15.36290829  4678
KUIPER-00198            
1 67770U 26030G   26065.95988263  .00036965  00000+0  10463-2 0  9991
2 67770  51.8807 232.2734 0003393  38.8506 321.2724 15.35933818  4673
KUIPER-00199            
1 67771U 26030H   26066.17877177  .00051335  00000+0  15229-2 0  9991
2 67771  51.8825 231.4828 0010486  53.1698 307.0248 15.34264276  4703
KUIPER-00200            
1 67772U 26030J   26065.94567875  .00043608  00000+0  11919-2 0  9993
2 67772  51.8805 232.1832 0001199 236.8219 123.2653 15.36950991  4677
KUIPER-00203            
1 67773U 26030K   26066.16670139 -.01669998  00000+0 -85900-1 0  9996
2 67773  51.8837 231.9407 0011778  50.6098  18.3301 15.19362672  3261
KUIPER-00205            
1 67774U 26030L   26065.95541554  .00037927  00000+0  10613-2 0  9999
2 67774  51.8807 232.2450 0003132  13.0131 347.0936 15.36280709  4678
KUIPER-00208            
1 67775U 26030M   26065.93300549  .00030045  00000+0  95301-3 0  9997
2 67775  51.8835 232.8389 0014815  52.8930 307.3407 15.32339655  4667
KUIPER-00209            
1 67776U 26030N   26066.16670139 -.00001926  00000+0 -52334-4 0  9997
2 67776  51.8828 231.7998 0012930  60.5032 108.1048 15.30239133  4092
KUIPER-00213            
1 67777U 26030P   26065.93341744  .00030865  00000+0  96939-3 0  9999
2 67777  51.8810 232.8321 0015013  56.9214 303.3210 15.32638790  4669
